     2.100          NAVIGATION                              RINEX VERSION / TYPE
fic2rin                                 08/14/2014 00:31:15 PGM / RUN BY / DATE
                                                            END OF HEADER
26 14  8 13  8  0  0.0 -.181486830115D-04 -.129602995003D-10  .000000000000D+00
     .950000000000D+02 -.183437500000D+02  .469448125827D-08  .265425082992D+01
    -.116974115372D-05  .212222343544D-01  .333972275257D-05  .515368457794D+04
     .288000000000D+06  .145286321640D-06 -.885939891387D+00 -.281259417534D-06
     .973919983631D+00  .318812500000D+03  .129083274638D+01 -.797497504686D-08
    -.241438628317D-09  .100000000000D+01  .180500000000D+04  .000000000000D+00
     .240000000000D+01  .000000000000D+00 -.605359673500D-08  .950000000000D+02
     .280806000000D+06  .400000000000D+01
27 14  8 13  8  0  0.0  .566570088267D-05  .329691829393D-11  .000000000000D+00
     .940000000000D+02 -.181562500000D+02  .483698719422D-08 -.249549070579D+01
    -.879168510437D-06  .144087534864D-02  .279769301414D-05  .515367062569D+04
     .288000000000D+06 -.242143869400D-07  .215414376595D+01  .577419996262D-07
     .964097000750D+00  .327437500000D+03  .321275782792D+00 -.851035449042D-08
    -.142863093678D-10  .100000000000D+01  .180500000000D+04  .000000000000D+00
     .240000000000D+01  .000000000000D+00  .186264514923D-08  .940000000000D+02
     .280806000000D+06  .400000000000D+01
28 14  8 13  8  0  0.0  .376809388399D-03  .272848410532D-11  .000000000000D+00
     .171000000000D+03  .802187500000D+02  .382694512191D-08 -.154769960500D+01
     .431574881077D-05  .191940688528D-01  .858865678310D-05  .515368143654D+04
     .288000000000D+06  .188127160072D-06  .117458590670D+01  .426545739174D-06
     .987091994149D+00  .230375000000D+03 -.170996360811D+01 -.779246744469D-08
     .257867884090D-09  .100000000000D+01  .180500000000D+04  .000000000000D+00
     .340000000000D+01  .000000000000D+00 -.107102096081D-07  .171000000000D+03
     .280806000000D+06  .400000000000D+01
29 14  8 13  8  0  0.0  .553321558982D-03  .261479726760D-11  .000000000000D+00
     .930000000000D+02 -.330000000000D+02  .477448459073D-08  .288477023403D+00
    -.176578760147D-05  .126908137463D-02  .289641320705D-05  .515365167236D+04
     .288000000000D+06  .186264514923D-08  .220931136639D+01 -.465661287308D-07
     .970109519447D+00  .330312500000D+03 -.790345491942D+00 -.849321091918D-08
    -.178221709364D-09  .100000000000D+01  .180500000000D+04  .000000000000D+00
     .240000000000D+01  .000000000000D+00 -.977888703346D-08  .930000000000D+02
     .280806000000D+06  .400000000000D+01
30 14  8 13  8  0  0.0 -.476930290461D-04 -.557065504836D-11  .000000000000D+00
     .600000000000D+02 -.416875000000D+02  .450018745087D-08  .111707077917D+01
    -.214017927647D-05  .977519550361D-03  .110045075417D-04  .515367768669D+04
     .288000000000D+06 -.316649675369D-07  .139926876653D+00 -.838190317154D-07
     .958803604304D+00  .162718750000D+03  .300241109566D+01 -.806997900416D-08
    -.464662212189D-09  .100000000000D+01  .180500000000D+04  .000000000000D+00
     .240000000000D+01  .000000000000D+00  .325962901115D-08  .600000000000D+02
     .280806000000D+06  .400000000000D+01
31 14  8 13  8  0  0.0  .332756433636D-03 -.341060513165D-12  .000000000000D+00
     .720000000000D+02 -.565000000000D+02  .410195657724D-08  .108444062840D+01
    -.296719372272D-05  .798659655266D-02  .117216259241D-04  .515360496712D+04
     .288000000000D+06  .199303030968D-06  .930607701603D-01 -.596046447754D-07
     .978122638597D+00  .158562500000D+03 -.634150676590D+00 -.783246911092D-08
    -.586810157284D-09  .100000000000D+01  .180500000000D+04  .000000000000D+00
     .240000000000D+01  .000000000000D+00 -.130385160446D-07  .720000000000D+02
     .280806000000D+06  .400000000000D+01
32 14  8 13  8  0  0.0 -.363953411579D-03  .841282599140D-11  .000000000000D+00
     .690000000000D+02  .810937500000D+02  .483055835500D-08  .165686468208D+01
     .410713255405D-05  .113917263225D-01  .102706253529D-04  .515368249130D+04
     .288000000000D+06  .987201929092D-07 -.194799264324D+01  .150874257088D-06
     .947319330190D+00  .172718750000D+03 -.115964756889D+00 -.826105839196D-08
     .461804950316D-09  .100000000000D+01  .180500000000D+04  .000000000000D+00
     .240000000000D+01  .000000000000D+00 -.325962901115D-08  .690000000000D+02
     .280806000000D+06  .400000000000D+01
25 14  8 13  7 59 28.0  .237096101046D-04 -.568434188608D-12  .000000000000D+00
     .240000000000D+02  .956875000000D+02  .415803034151D-08 -.774133003690D-01
     .490434467793D-05  .368589232676D-02  .983476638794D-05  .515357470131D+04
     .287968000000D+06  .391155481339D-07  .110697618214D+01  .856816768646D-07
     .976672813634D+00  .195656250000D+03  .730723485886D+00 -.803819196582D-08
     .351086052715D-09  .100000000000D+01  .180500000000D+04  .000000000000D+00
     .240000000000D+01  .000000000000D+00  .558793544769D-08  .240000000000D+02
     .281046000000D+06  .400000000000D+01
20 14  8 13  7 59 44.0  .221480615437D-03  .432009983342D-11  .000000000000D+00
     .000000000000D+00  .574375000000D+02  .533415076022D-08 -.311159900305D+00
     .293552875519D-05  .582880852744D-02  .107884407043D-04  .515375016212D+04
     .287984000000D+06 -.279396772385D-07 -.209681442170D+01  .465661287308D-07
     .926579240682D+00  .159250000000D+03  .132928217168D+01 -.851285459456D-08
     .539308178636D-09  .100000000000D+01  .180500000000D+04  .000000000000D+00
     .240000000000D+01  .000000000000D+00 -.791624188423D-08  .000000000000D+00
     .281706000000D+06  .400000000000D+01
20 14  8 13  9 59 44.0  .221511814743D-03  .432009983342D-11  .000000000000D+00
     .250000000000D+02  .612812500000D+02  .512557064345D-08  .738884795712D+00
     .308081507683D-05  .583210121840D-02  .115577131510D-04  .515375650215D+04
     .295184000000D+06 -.409781932831D-07 -.209687548243D+01 -.372529029846D-08
     .926582972586D+00  .135750000000D+03  .132937444084D+01 -.850892585949D-08
     .498949354672D-09  .100000000000D+01  .180500000000D+04  .000000000000D+00
     .240000000000D+01  .000000000000D+00 -.791624188423D-08  .250000000000D+02
     .288006000000D+06  .400000000000D+01
 1 14  8 13 10  0  0.0  .195284374058D-04  .682121026330D-12  .000000000000D+00
     .710000000000D+02 -.895000000000D+02  .427767818247D-08  .276631159095D+01
    -.460073351860D-05  .337529135868D-02  .115111470222D-04  .515368287086D+04
     .295200000000D+06 -.111758708954D-07 -.307373488834D+01 -.484287738800D-07
     .961633189231D+00  .157875000000D+03  .373346202796D+00 -.801069082028D-08
    -.367515308488D-09  .100000000000D+01  .180500000000D+04  .000000000000D+00
     .240000000000D+01  .000000000000D+00  .558793544769D-08  .710000000000D+02
     .288006000000D+06  .400000000000D+01
 2 14  8 13 10  0  0.0  .512314494699D-03  .216004991671D-11  .000000000000D+00
     .500000000000D+02 -.936562500000D+02  .461912097636D-08 -.283703068352D+01
    -.480189919472D-05  .136956082424D-01  .106301158667D-04  .515366394424D+04
     .295200000000D+06 -.111758708954D-07 -.310502879803D+01 -.199303030968D-06
     .940180730301D+00  .160312500000D+03 -.239861498614D+01 -.798247535928D-08
    -.240367155114D-09  .100000000000D+01  .180500000000D+04  .000000000000D+00
     .240000000000D+01  .000000000000D+00 -.200234353542D-07  .500000000000D+02
     .288006000000D+06  .400000000000D+01
 3 14  8 13 10  0  0.0  .403260346502D-03  .488853402203D-11  .000000000000D+00
     .111000000000D+03  .105625000000D+02  .541165398854D-08 -.282602723986D+01
     .607222318649D-06  .173454559408D-01  .192224979401D-05  .515381696320D+04
     .295200000000D+06  .223517417908D-06  .200275504171D+01 -.372529029846D-08
     .939021626660D+00  .329656250000D+03  .141533370487D+01 -.854571310611D-08
     .114647632677D-09  .100000000000D+01  .180500000000D+04  .000000000000D+00
     .340000000000D+01  .630000000000D+02 -.465661287308D-08  .111000000000D+03
     .288006000000D+06  .400000000000D+01
 4 14  8 13 10  0  0.0 -.931322574615D-08 -.227373675443D-12  .000000000000D+00
     .690000000000D+02 -.982187500000D+02  .485055918812D-08  .132348157568D+01
    -.510178506374D-05  .109053488122D-01  .109784305096D-04  .515198677444D+04
     .295200000000D+06 -.139698386192D-06 -.308920403135D+01 -.111758708954D-06
     .939191587019D+00  .162312500000D+03  .106363324174D+01 -.841749347953D-08
    -.463233581252D-09  .100000000000D+01  .180500000000D+04  .000000000000D+00
     .240000000000D+01  .000000000000D+00 -.651925802231D-08  .690000000000D+02
     .288006000000D+06  .400000000000D+01
 5 14  8 13 10  0  0.0 -.349728856236D-03  .341060513165D-11  .000000000000D+00
     .220000000000D+02  .618437500000D+02  .470305304389D-08 -.448332807341D+00
     .337325036526D-05  .369801349007D-02  .983290374279D-05  .515366156578D+04
     .295200000000D+06  .465661287308D-07 -.203691050109D+01 -.204890966415D-07
     .946918938289D+00  .180250000000D+03  .309049469814D+00 -.823712882376D-08
     .512164190837D-09  .100000000000D+01  .180500000000D+04  .000000000000D+00
     .240000000000D+01  .000000000000D+00 -.102445483208D-07  .220000000000D+02
     .288006000000D+06  .400000000000D+01
 6 14  8 13 10  0  0.0 -.407360494137D-05 -.113686837722D-11  .000000000000D+00
     .720000000000D+02 -.876250000000D+02  .424267672452D-08 -.602498135460D+00
    -.437162816525D-05  .451596803032D-03  .106748193502D-04  .515358590126D+04
     .295200000000D+06 -.128522515297D-06 -.308229732446D+01 -.540167093277D-07
     .961559573730D+00  .175281250000D+03  .218872376854D+01 -.792032991353D-08
    -.317870383435D-09  .100000000000D+01  .180500000000D+04  .000000000000D+00
     .240000000000D+01  .000000000000D+00  .465661287308D-08  .720000000000D+02
     .288006000000D+06  .400000000000D+01
